VESSELSAT 1 [-]         
1 37840U 11058C   23346.94391028  .00000363  00000+0  53383-4 0  9998
2 37840  19.9604 194.7859 0013798 232.7506 127.1640 14.11092737628438
ORBCOMM FM109 [+]       
1 40086U 14040A   23346.46779848  .00000703  00000+0  19522-3 0  9999
2 40086  47.0034 102.4418 0002694 279.6510  80.4070 14.56160227500579
ORBCOMM FM107 [+]       
1 40087U 14040B   23346.43322542  .00000664  00000+0  18660-3 0  9990
2 40087  47.0053 103.5448 0002317 251.9579 108.1054 14.56153386500529
ORBCOMM FM106 [-]       
1 40088U 14040C   23345.98145513  .00000815  00000+0  17903-3 0  9998
2 40088  47.0628 329.8098 0018199  18.8721 341.2840 14.66335358502208
ORBCOMM FM111 [-]       
1 40089U 14040D   23346.81143667  .00001561  00000+0  22676-3 0  9992
2 40089  47.0042 244.2368 0032702  78.3195 282.1367 14.80566747508220
ORBCOMM FM104 [-]       
1 40090U 14040E   23346.52884031  .00000519  00000+0  15888-3 0  9998
2 40090  47.0045 130.3685 0017694 203.8712 156.1353 14.54692028500203
